ONEWEB-0054             
1 45158U 20008AD  26169.60991426 -.00001794  00000+0 -51769-2 0  9996
2 45158  87.8839  35.9839 0001666  81.8199 278.3117 13.10349908308211
ONEWEB-0056             
1 45159U 20008AE  26169.88678944  .00002389  00000+0  67999-2 0  9995
2 45159  87.8834  35.9221 0001865  90.0037 270.1304 13.10443103308407
ONEWEB-0057             
1 45160U 20008AF  26169.36931354  .00000295  00000+0  80818-3 0  9997
2 45160  87.8838  36.0378 0002096  70.2794 289.8559 13.10377611308505
ONEWEB-0058             
1 45161U 20008AG  26169.89052744 -.00000620  00000+0 -18126-2 0  9999
2 45161  87.8827  35.9402 0001564  85.0266 275.1040 13.10374036308643
ONEWEB-0059             
1 45162U 20008AH  26169.88708796  .00003912  00000+0  11155-1 0  9993
2 45162  87.8827  35.9396 0001827  76.3185 283.8146 13.10433816308545
ONEWEB-0062             
1 45163U 20008AJ  26169.68111888 -.00000083  00000+0 -27394-3 0  9994
2 45163  87.8837  35.9680 0001545  94.3822 265.7482 13.10372588308380
ONEWEB-0065             
1 45164U 20008AK  26169.86728454 -.00004138  00000+0 -11919-1 0  9997
2 45164  87.8831  35.9389 0002073  79.9946 280.1415 13.10242999308103
ONEWEB-0066             
1 45424U 20020A   26169.82521841  .00000013  00000+0  10281-5 0  9998
2 45424  87.8883  20.7451 0001663  81.8297 278.3020 13.11414354302894
ONEWEB-0067             
1 45425U 20020B   26169.86309661 -.00000036  00000+0 -13668-3 0  9994
2 45425  87.8905  20.6597 0001940  81.8216 278.3132 13.11425973302959
ONEWEB-0080             
1 45426U 20020C   26169.86266019 -.00000044  00000+0 -16050-3 0  9991
2 45426  87.8897  20.7342 0001618  94.5331 265.5982 13.11418946302920
ONEWEB-0090             
1 45427U 20020D   26169.81519425  .00000326  00000+0  88512-3 0  9992
2 45427  87.8894  20.7481 0001804  88.7642 271.3692 13.11413857302883
ONEWEB-0061             
1 45428U 20020E   26169.84711315 -.00000597  00000+0 -17193-2 0  9996
2 45428  87.8892  20.7263 0001761  85.5185 274.6144 13.11415959302848
ONEWEB-0081             
1 45429U 20020F   26169.59971657 -.00000171  00000+0 -51955-3 0  9999
2 45429  87.8886  20.7858 0001801  79.4555 280.6776 13.11414537302928
ONEWEB-0069             
1 45430U 20020G   26169.83043793 -.00000281  00000+0 -83004-3 0  9991
2 45430  87.8890  20.7427 0001807  83.1247 277.0086 13.11413799302881
ONEWEB-0031             
1 45431U 20020H   26169.86591156  .00000153  00000+0  39679-3 0  9991
2 45431  87.8885  20.7408 0001721  90.9540 269.1785 13.11420069302877
ONEWEB-0027             
1 45432U 20020J   26169.77989882  .00000035  00000+0  57528-4 0  9992
2 45432  87.9142   5.5482 0002012 103.1866 256.9490 13.17652019306565
ONEWEB-0064             
1 45433U 20020K   26169.86422184  .00000031  00000+0  51644-4 0  9999
2 45433  87.8887  20.7329 0001799  91.3390 268.7944 13.11418902302905
ONEWEB-0018             
1 45434U 20020L   26169.28592706  .00000097  00000+0  23701-3 0  9998
2 45434  87.8886  20.8474 0001439  79.7689 280.3601 13.11416789302775
ONEWEB-0083             
1 45435U 20020M   26169.81011422  .00000529  00000+0  14570-2 0  9992
2 45435  87.8894  20.7369 0001758  88.1768 271.9562 13.11416078302888
ONEWEB-0095             
1 45436U 20020N   26169.87792551  .00000527  00000+0  14510-2 0  9990
2 45436  87.8892  20.7320 0002505  91.3781 268.7634 13.11422881302890
ONEWEB-0092             
1 45437U 20020P   26169.83198749 -.00000270  00000+0 -79694-3 0  9998
2 45437  87.8889  20.7325 0002133  83.9750 276.1620 13.11420764303002
ONEWEB-0085             
1 45438U 20020Q   26169.27575877  .00000466  00000+0  12787-2 0  9992
2 45438  87.8886  20.8499 0001824  86.2902 273.8435 13.11415137302818
ONEWEB-0096             
1 45439U 20020R   26169.12498446  .00000408  00000+0  11140-2 0  9991
2 45439  87.8893  20.8759 0001872  87.7842 272.3501 13.11421220302782
ONEWEB-0037             
1 45440U 20020S   26169.84432544 -.00000535  00000+0 -15356-2 0  9995
2 45440  87.8904  20.7062 0001904  85.9983 274.1363 13.11913042302914
ONEWEB-0042             
1 45441U 20020T   26169.87765687  .00000545  00000+0  15021-2 0  9994
2 45441  87.8892  20.7224 0001837  82.0294 278.1043 13.11417317302888
ONEWEB-0098             
1 45442U 20020U   26169.87355198  .00000411  00000+0  11238-2 0  9995
2 45442  87.8892  20.7327 0001773  87.8454 272.2877 13.11418260302869
ONEWEB-0055             
1 45443U 20020V   26169.85222108 -.00000449  00000+0 -13020-2 0  9992
2 45443  87.8894  20.7358 0001770  88.4241 271.7089 13.11418002302834
ONEWEB-0093             
1 45444U 20020W   26169.83213406 -.00000261  00000+0 -77318-3 0  9995
2 45444  87.8892  20.7324 0001866  73.2411 286.8922 13.11414053302894
ONEWEB-0029             
1 45445U 20020X   26169.85925669 -.00000438  00000+0 -12714-2 0  9993
2 45445  87.8886  20.7365 0001715  78.2191 281.9129 13.11418531302874
ONEWEB-0068             
1 45446U 20020Y   26169.83186358 -.00000246  00000+0 -72990-3 0  9996
2 45446  87.8894  20.7364 0001723  80.2934 279.8389 13.11414871302811
ONEWEB-0046             
1 45447U 20020Z   26169.28944617 -.00000012  00000+0 -70941-4 0  9992
2 45447  87.8885  20.8502 0001966  78.7806 281.3542 13.11413921302753
