OBJECT_NAME,OBJECT_ID,EPOCH,MEAN_MOTION,ECCENTRICITY,INCLINATION,RA_OF_ASC_NODE,ARG_OF_PERICENTER,MEAN_ANOMALY,EPHEMERIS_TYPE,CLASSIFICATION_TYPE,NORAD_CAT_ID,ELEMENT_SET_NO,REV_AT_EPOCH,BSTAR,MEAN_MOTION_DOT,MEAN_MOTION_DDOT
ONEWEB-0054,2020-008AD,2026-06-18T14:38:16.592064,13.10349908,.0001666,87.8839,35.9839,81.8199,278.3117,0,U,45158,999,30821,-.51769E-2,-.1794E-4,0
ONEWEB-0056,2020-008AE,2026-06-18T21:16:58.607616,13.10443103,.0001865,87.8834,35.9221,90.0037,270.1304,0,U,45159,999,30840,.67999E-2,.2389E-4,0
ONEWEB-0057,2020-008AF,2026-06-18T08:51:48.689856,13.10377611,.0002096,87.8838,36.0378,70.2794,289.8559,0,U,45160,999,30850,.80818E-3,.295E-5,0
ONEWEB-0058,2020-008AG,2026-06-18T21:22:21.570816,13.10374036,.0001564,87.8827,35.9402,85.0266,275.1040,0,U,45161,999,30864,-.18126E-2,-.62E-5,0
ONEWEB-0059,2020-008AH,2026-06-18T21:17:24.399744,13.10433816,.0001827,87.8827,35.9396,76.3185,283.8146,0,U,45162,999,30854,.11155E-1,.3912E-4,0
ONEWEB-0062,2020-008AJ,2026-06-18T16:20:48.671232,13.10372588,.0001545,87.8837,35.9680,94.3822,265.7482,0,U,45163,999,30838,-.27394E-3,-.83E-6,0
ONEWEB-0065,2020-008AK,2026-06-18T20:48:53.384256,13.10242999,.0002073,87.8831,35.9389,79.9946,280.1415,0,U,45164,999,30810,-.11919E-1,-.4138E-4,0
ONEWEB-0066,2020-020A,2026-06-18T19:48:18.870624,13.11414354,.0001663,87.8883,20.7451,81.8297,278.3020,0,U,45424,999,30289,.10281E-5,.13E-6,0
ONEWEB-0067,2020-020B,2026-06-18T20:42:51.547104,13.11425973,.000194,87.8905,20.6597,81.8216,278.3132,0,U,45425,999,30295,-.13668E-3,-.36E-6,0
ONEWEB-0080,2020-020C,2026-06-18T20:42:13.840416,13.11418946,.0001618,87.8897,20.7342,94.5331,265.5982,0,U,45426,999,30292,-.1605E-3,-.44E-6,0
ONEWEB-0090,2020-020D,2026-06-18T19:33:52.783200,13.11413857,.0001804,87.8894,20.7481,88.7642,271.3692,0,U,45427,999,30288,.88512E-3,.326E-5,0
ONEWEB-0061,2020-020E,2026-06-18T20:19:50.576160,13.11415959,.0001761,87.8892,20.7263,85.5185,274.6144,0,U,45428,999,30284,-.17193E-2,-.597E-5,0
ONEWEB-0081,2020-020F,2026-06-18T14:23:35.511648,13.11414537,.0001801,87.8886,20.7858,79.4555,280.6776,0,U,45429,999,30292,-.51955E-3,-.171E-5,0
ONEWEB-0069,2020-020G,2026-06-18T19:55:49.837152,13.11413799,.0001807,87.8890,20.7427,83.1247,277.0086,0,U,45430,999,30288,-.83004E-3,-.281E-5,0
ONEWEB-0031,2020-020H,2026-06-18T20:46:54.758784,13.11420069,.0001721,87.8885,20.7408,90.9540,269.1785,0,U,45431,999,30287,.39679E-3,.153E-5,0
ONEWEB-0027,2020-020J,2026-06-18T18:43:03.258048,13.17652019,.0002012,87.9142,5.5482,103.1866,256.9490,0,U,45432,999,30656,.57528E-4,.35E-6,0
ONEWEB-0064,2020-020K,2026-06-18T20:44:28.766976,13.11418902,.0001799,87.8887,20.7329,91.3390,268.7944,0,U,45433,999,30290,.51644E-4,.31E-6,0
ONEWEB-0018,2020-020L,2026-06-18T06:51:44.097984,13.11416789,.0001439,87.8886,20.8474,79.7689,280.3601,0,U,45434,999,30277,.23701E-3,.97E-6,0
ONEWEB-0083,2020-020M,2026-06-18T19:26:33.868608,13.11416078,.0001758,87.8894,20.7369,88.1768,271.9562,0,U,45435,999,30288,.1457E-2,.529E-5,0
ONEWEB-0095,2020-020N,2026-06-18T21:04:12.764064,13.11422881,.0002505,87.8892,20.7320,91.3781,268.7634,0,U,45436,999,30289,.1451E-2,.527E-5,0
ONEWEB-0092,2020-020P,2026-06-18T19:58:03.719136,13.11420764,.0002133,87.8889,20.7325,83.9750,276.1620,0,U,45437,999,30300,-.79694E-3,-.27E-5,0
ONEWEB-0085,2020-020Q,2026-06-18T06:37:05.557728,13.11415137,.0001824,87.8886,20.8499,86.2902,273.8435,0,U,45438,999,30281,.12787E-2,.466E-5,0
ONEWEB-0096,2020-020R,2026-06-18T02:59:58.657344,13.11421220,.0001872,87.8893,20.8759,87.7842,272.3501,0,U,45439,999,30278,.1114E-2,.408E-5,0
ONEWEB-0037,2020-020S,2026-06-18T20:15:49.718016,13.11913042,.0001904,87.8904,20.7062,85.9983,274.1363,0,U,45440,999,30291,-.15356E-2,-.535E-5,0
ONEWEB-0042,2020-020T,2026-06-18T21:03:49.553568,13.11417317,.0001837,87.8892,20.7224,82.0294,278.1043,0,U,45441,999,30288,.15021E-2,.545E-5,0
ONEWEB-0098,2020-020U,2026-06-18T20:57:54.891072,13.11418260,.0001773,87.8892,20.7327,87.8454,272.2877,0,U,45442,999,30286,.11238E-2,.411E-5,0
ONEWEB-0055,2020-020V,2026-06-18T20:27:11.901312,13.11418002,.000177,87.8894,20.7358,88.4241,271.7089,0,U,45443,999,30283,-.1302E-2,-.449E-5,0
ONEWEB-0093,2020-020W,2026-06-18T19:58:16.382784,13.11414053,.0001866,87.8892,20.7324,73.2411,286.8922,0,U,45444,999,30289,-.77318E-3,-.261E-5,0
ONEWEB-0029,2020-020X,2026-06-18T20:37:19.778016,13.11418531,.0001715,87.8886,20.7365,78.2191,281.9129,0,U,45445,999,30287,-.12714E-2,-.438E-5,0
ONEWEB-0068,2020-020Y,2026-06-18T19:57:53.013312,13.11414871,.0001723,87.8894,20.7364,80.2934,279.8389,0,U,45446,999,30281,-.7299E-3,-.246E-5,0
ONEWEB-0046,2020-020Z,2026-06-18T06:56:48.149088,13.11413921,.0001966,87.8885,20.8502,78.7806,281.3542,0,U,45447,999,30275,-.70941E-4,-.12E-6,0
